{
    "links": {
        "self": "http://www.neowsapp.com/rest/v1/neo/3837787?api_key=iIulBulltgU6a56xZRHN4H3l9WmuAYTsLGpBGhQ2"
    },
    "id": "3837787",
    "neo_reference_id": "3837787",
    "name": "(2019 AD9)",
    "designation": "2019 AD9",
    "nasa_jpl_url": "http://ssd.jpl.nasa.gov/sbdb.cgi?sstr=3837787",
    "absolute_magnitude_h": 23.6,
    "estimated_diameter": {
        "kilometers": {
            "estimated_diameter_min": 0.0506471459,
            "estimated_diameter_max": 0.1132504611
        },
        "meters": {
            "estimated_diameter_min": 50.6471458835,
            "estimated_diameter_max": 113.2504610618
        },
        "miles": {
            "estimated_diameter_min": 0.0314706677,
            "estimated_diameter_max": 0.0703705522
        },
        "feet": {
            "estimated_diameter_min": 166.1651821003,
            "estimated_diameter_max": 371.5566426699
        }
    },
    "is_potentially_hazardous_asteroid": false,
    "close_approach_data": [
        {
            "close_approach_date": "2018-08-21",
            "close_approach_date_full": "2018-Aug-21 01:43",
            "epoch_date_close_approach": 1534815780000,
            "relative_velocity": {
                "kilometers_per_second": "6.2337509905",
                "kilometers_per_hour": "22441.5035659708",
                "miles_per_hour": "13944.2775907556"
            },
            "miss_distance": {
                "astronomical": "0.1399441702",
                "lunar": "54.4382822078",
                "kilometers": "20935349.780837474",
                "miles": "13008623.1359421812"
            },
            "orbiting_body": "Earth"
        },
        {
            "close_approach_date": "2018-12-09",
            "close_approach_date_full": "2018-Dec-09 19:08",
            "epoch_date_close_approach": 1544382480000,
            "relative_velocity": {
                "kilometers_per_second": "5.2355915206",
                "kilometers_per_hour": "18848.1294741891",
                "miles_per_hour": "11711.4946724482"
            },
            "miss_distance": {
                "astronomical": "0.1623121025",
                "lunar": "63.1394078725",
                "kilometers": "24281544.809221675",
                "miles": "15087852.311442115"
            },
            "orbiting_body": "Earth"
        }
    ],
    "orbital_data": {
        "orbit_id": "2",
        "orbit_determination_date": "2019-07-27 14:01:41",
        "first_observation_date": "2019-01-10",
        "last_observation_date": "2019-01-12",
        "data_arc_in_days": 2,
        "observations_used": 12,
        "orbit_uncertainty": "9",
        "minimum_orbit_intersection": ".125213",
        "jupiter_tisserand_invariant": "4.946",
        "epoch_osculation": "2458494.5",
        "eccentricity": ".2353844256465602",
        "semi_major_axis": "1.305317718538041",
        "inclination": "9.601873767645635",
        "ascending_node_longitude": "107.09195788",
        "orbital_period": "544.7193170857903",
        "perihelion_distance": ".998066257073686",
        "perihelion_argument": "277.5371088782981",
        "aphelion_distance": "1.612569180002397",
        "perihelion_time": "2458406.299403544789",
        "mean_anomaly": "58.29096514099786",
        "mean_motion": ".6608908270886638",
        "equinox": "J2000",
        "orbit_class": {
            "orbit_class_type": "APO",
            "orbit_class_description": "Near-Earth asteroid orbits which cross the Earth’s orbit similar to that of 1862 Apollo",
            "orbit_class_range": "a (semi-major axis) > 1.0 AU; q (perihelion) < 1.017 AU"
        }
    },
    "is_sentry_object": false
}